{"type":"FeatureCollection","features":[{"type":"Feature","properties":{"name":"England"},"geometry":{"type":"Polygon","coordinates":[[[-1.7566,55.6718],[-2.0278,55.449],[-1.9661,55.0551],[-2.6933,54.9711],[-3.0555,54.4177],[-3.0914,53.7259],[-3.0914,53.3559],[-2.9219,53.0899],[-3.0804,52.5598],[-3.8012,52.5039],[-4.0978,52.4104],[-4.6919,52.1285],[-5.1236,51.7387],[-4.2769,51.1874],[-3.1131,51.2106],[-2.6494,51.5584],[-1.4277,50.929],[-0.0747,50.7057],[0.3318,50.929],[1.7727,51.423],[1.4178,52.0646],[1.7522,52.9726],[0.4822,53.4339],[0.2808,53.7436],[-0.0714,54.0286],[-1.0718,54.6508],[-1.3616,55.0401],[-1.7566,55.6718]]]}},{"type":"Feature","properties":{"name":"Scotland"},"geometry":{"type":"MultiPolygon","coordinates":[[[[-1.7566,55.6718],[-2.5031,55.8182],[-3.1875,55.9529],[-4.0097,55.7409],[-5.0492,55.9416],[-6.0194,56.5131],[-5.5213,57.0183],[-6.191,57.5234],[-5.8438,57.9793],[-5.0085,58.4221],[-4.5273,58.6199],[-3.828,58.501],[-3.1262,57.998],[-3.5185,57.5701],[-2.5031,57.0029],[-2.9736,56.4755],[-3.4375,56.0234],[-3.0664,55.9404],[-2.6934,54.9711],[-1.9661,55.0551],[-2.0278,55.449],[-1.7566,55.6718]]],[[[-6.1493,57.4736],[-6.3721,57.6318],[-6.8164,57.7412],[-7.0337,57.5117],[-6.665,57.3271],[-6.1493,57.4736]]],[[[-4.8584,58.0957],[-5.0613,58.1934],[-5.2085,58.0518],[-4.9316,57.9834],[-4.8584,58.0957]]]]}},{"type":"Feature","properties":{"name":"Wales"},"geometry":{"type":"Polygon","coordinates":[[[-2.9219,53.0899],[-3.0914,53.3559],[-3.0914,53.7259],[-3.0555,54.4177],[-2.6934,54.9711],[-3.0664,55.9404],[-3.8012,52.5039],[-4.0978,52.4104],[-4.6919,52.1285],[-5.1236,51.7387],[-4.2769,51.1874],[-3.1131,51.2106],[-2.6494,51.5584],[-2.6494,52.0625],[-2.9219,52.5598],[-3.0804,52.9834],[-2.9219,53.0899]]]}},{"type":"Feature","properties":{"name":"Northern Ireland"},"geometry":{"type":"Polygon","coordinates":[[[-8.1787,55.249],[-7.1729,54.9785],[-6.0327,54.8828],[-5.459,55.2344],[-5.9912,55.4102],[-6.7896,55.5176],[-7.8198,55.5762],[-8.1787,55.249]]]}}]}
