{
  "type": "FeatureCollection",
  "features": [
    {
      "type": "Feature",
      "properties": { "name": "England" },
      "geometry": {
        "type": "Polygon",
        "coordinates": [[
          [-1.76, 55.67], [-2.03, 55.45], [-1.96, 55.06], [-2.69, 54.97],
          [-3.06, 54.42], [-3.09, 53.73], [-3.09, 53.36], [-2.92, 53.09],
          [-3.08, 52.56], [-4.10, 52.41], [-4.69, 52.13], [-5.12, 51.74],
          [-4.28, 51.19], [-3.11, 51.21], [-2.65, 51.56], [-1.43, 50.93],
          [-0.07, 50.70], [0.33, 50.93], [1.77, 51.42], [1.42, 52.06],
          [1.75, 52.97], [0.48, 53.43], [0.28, 53.74], [-0.07, 54.03],
          [-1.07, 54.65], [-1.36, 55.04], [-1.76, 55.67]
        ]]
      }
    },
    {
      "type": "Feature",
      "properties": { "name": "Scotland" },
      "geometry": {
        "type": "Polygon",
        "coordinates": [[
          [-1.76, 55.67], [-1.36, 55.04], [-1.07, 54.65], [-2.03, 55.45],
          [-2.69, 54.97], [-3.06, 55.94], [-3.44, 56.02], [-2.97, 56.47],
          [-2.50, 57.00], [-3.52, 57.57], [-3.13, 58.00], [-3.83, 58.50],
          [-4.53, 58.62], [-5.01, 58.42], [-5.84, 57.98], [-6.19, 57.52],
          [-5.52, 57.02], [-6.02, 56.51], [-5.05, 55.94], [-4.01, 55.74],
          [-3.19, 55.95], [-2.50, 55.82], [-1.76, 55.67]
        ]]
      }
    },
    {
      "type": "Feature",
      "properties": { "name": "Wales" },
      "geometry": {
        "type": "Polygon",
        "coordinates": [[
          [-2.92, 53.09], [-3.09, 53.36], [-3.09, 53.73], [-3.06, 54.42],
          [-3.09, 53.73], [-4.10, 52.41], [-4.69, 52.13], [-5.12, 51.74],
          [-4.28, 51.19], [-3.11, 51.21], [-2.65, 51.56], [-2.65, 52.06],
          [-2.92, 52.56], [-3.08, 52.98], [-2.92, 53.09]
        ]]
      }
    },
    {
      "type": "Feature",
      "properties": { "name": "Northern Ireland" },
      "geometry": {
        "type": "Polygon",
        "coordinates": [[
          [-8.18, 55.25], [-7.17, 54.98], [-6.03, 54.88], [-5.46, 55.23],
          [-5.99, 55.41], [-6.79, 55.52], [-7.82, 55.57], [-8.18, 55.25]
        ]]
      }
    }
  ]
}
